NORAD_CAT_ID,OBJECT_NAME,OBJECT_TYPE,EPOCH,MEAN_MOTION,ECCENTRICITY,INCLINATION,RA_OF_ASC_NODE,ARG_OF_PERICENTER,MEAN_ANOMALY,BSTAR,MEAN_MOTION_DOT,MEAN_MOTION_DDOT,TLE_LINE0,TLE_LINE1,TLE_LINE2,SEMIMAJOR_AXIS,PERIOD,APOGEE,PERIGEE,DECAYED
49417.0,STARLINK-3154,PAYLOAD,2023-02-12 04:35:15,15.08829546,0.0001166,53.2153,213.7199,84.4969,275.6156,-0.00012693,-2.307e-05,0.0,0 STARLINK-3154,1 49417U 21104K   23043.19115038 -.00002307  00000-0 -12693-3 0  9991,2 49417  53.2153 213.7199 0001166  84.4969 275.6156 15.08829546 69456,6917.912,95.438,540.584,538.971,0.0
49417.0,STARLINK-3154,PAYLOAD,2023-02-12 20:29:06,15.08842728,9.82e-05,53.2152,210.7461,83.4799,276.6304,0.00090492,0.00014144,0.0,0 STARLINK-3154,1 49417U 21104K   23043.85355318  .00014144  00000-0  90492-3 0  9994,2 49417  53.2152 210.7461 0000982  83.4799 276.6304 15.08842728 70667,6917.872,95.437,540.416,539.058,0.0
49417.0,STARLINK-3154,PAYLOAD,2023-02-13 04:26:02,15.08837287,7.51e-05,53.2158,209.2594,106.9159,253.1916,0.0004977,7.641e-05,0.0,0 STARLINK-3154,1 49417U 21104K   23044.18475455  .00007641  00000-0  49770-3 0  9993,2 49417  53.2158 209.2594 0000751 106.9159 253.1916 15.08837287 70717,6917.889,95.438,540.273,539.234,0.0
49417.0,STARLINK-3154,PAYLOAD,2023-02-13 10:47:35,15.08841784,9.35e-05,53.2148,208.0697,95.7244,264.3855,0.00050845,7.814e-05,0.0,0 STARLINK-3154,1 49417U 21104K   23044.44971565  .00007814  00000-0  50845-3 0  9992,2 49417  53.2148 208.0697 0000935  95.7244 264.3855 15.08841784 69644,6917.875,95.437,540.387,539.093,0.0
49417.0,STARLINK-3154,PAYLOAD,2023-02-13 21:55:17,15.08858694,9.58e-05,53.2151,205.9884,91.1745,268.9357,0.00095132,0.00014892,0.0,0 STARLINK-3154,1 49417U 21104K   23044.91339183  .00014892  00000-0  95132-3 0  9990,2 49417  53.2151 205.9884 0000958  91.1745 268.9357 15.08858694 70820,6917.823,95.436,540.351,539.026,0.0
49417.0,STARLINK-3154,PAYLOAD,2023-02-14 04:16:49,15.08848064,8.57e-05,53.2157,204.798,97.0553,263.0536,0.00049353,7.577e-05,0.0,0 STARLINK-3154,1 49417U 21104K   23045.17835297  .00007577  00000-0  49353-3 0  9992,2 49417  53.2157 204.7980 0000857  97.0553 263.0536 15.08848064 70869,6917.856,95.437,540.314,539.128,0.0
49417.0,STARLINK-3154,PAYLOAD,2023-02-15 13:39:55,15.08849087,0.0001092,53.2157,198.5553,81.564,278.5476,0.0006074,9.394e-05,0.0,0 STARLINK-3154,1 49417U 21104K   23046.56939581  .00009394  00000-0  60740-3 0  9999,2 49417  53.2157 198.5553 0001092  81.5640 278.5476 15.08849087 69961,6917.853,95.437,540.473,538.962,0.0
49417.0,STARLINK-3154,PAYLOAD,2023-02-15 16:50:41,15.08852322,9.39e-05,53.2149,197.959,88.8066,271.3034,0.00053587,8.254e-05,0.0,0 STARLINK-3154,1 49417U 21104K   23046.70187347  .00008254  00000-0  53587-3 0  9995,2 49417  53.2149 197.9590 0000939  88.8066 271.3034 15.08852322 71091,6917.843,95.437,540.357,539.058,0.0
49417.0,STARLINK-3154,PAYLOAD,2023-02-16 13:30:42,15.08854357,0.0001204,53.2144,194.0936,89.2247,270.8883,0.00037548,5.695e-05,0.0,0 STARLINK-3154,1 49417U 21104K   23047.56299033  .00005695  00000-0  37548-3 0  9991,2 49417  53.2144 194.0936 0001204  89.2247 270.8883 15.08854357 71221,6917.837,95.437,540.534,538.869,0.0
49417.0,STARLINK-3154,PAYLOAD,2023-02-16 16:41:28,15.08862278,0.0001018,53.2138,193.4977,64.9076,295.2022,0.00062748,9.719e-05,0.0,0 STARLINK-3154,1 49417U 21104K   23047.69546853  .00009719  00000-0  62748-3 0  9991,2 49417  53.2138 193.4977 0001018  64.9076 295.2022 15.08862278 70131,6917.812,95.436,540.382,538.973,0.0
49417.0,STARLINK-3154,PAYLOAD,2023-02-17 11:46:06,15.08841447,8.48e-05,53.2168,189.9345,55.6254,304.4818,3.6543e-05,2.94e-06,0.0,0 STARLINK-3154,1 49417U 21104K   23048.49035288  .00000294  00000-0  36543-4 0  9999,2 49417  53.2168 189.9345 0000848  55.6254 304.4818 15.08841447 71365,6917.876,95.437,540.328,539.154,0.0
49417.0,STARLINK-3154,PAYLOAD,2023-02-17 16:32:15,15.08845084,0.0001081,53.2159,189.0388,51.374,308.7349,-0.00020981,-3.626e-05,0.0,0 STARLINK-3154,1 49417U 21104K   23048.68907227 -.00003626  00000-0 -20981-3 0  9993,2 49417  53.2159 189.0388 0001081  51.3740 308.7349 15.08845084 70283,6917.865,95.437,540.478,538.982,0.0
49417.0,STARLINK-3154,PAYLOAD,2023-02-18 11:36:54,15.08827854,8.68e-05,53.2149,185.4724,102.0992,258.0097,0.00010032,1.309e-05,0.0,0 STARLINK-3154,1 49417U 21104K   23049.48396178  .00001309  00000-0  10032-3 0  9999,2 49417  53.2149 185.4724 0000868 102.0992 258.0097 15.08827854 70407,6917.918,95.438,540.383,539.182,0.0
49417.0,STARLINK-3154,PAYLOAD,2023-02-18 14:47:40,15.08830165,9.64e-05,53.2152,184.8771,85.1906,274.9197,-2.5509e-05,-6.94e-06,0.0,0 STARLINK-3154,1 49417U 21104K   23049.61644281 -.00000694  00000-0 -25509-4 0  9999,2 49417  53.2152 184.8771 0000964  85.1906 274.9197 15.08830165 71531,6917.91,95.438,540.442,539.109,0.0
49417.0,STARLINK-3154,PAYLOAD,2023-02-19 14:38:27,15.08843052,0.0001117,53.2149,180.4177,69.5128,290.5984,0.00037105,5.623e-05,0.0,0 STARLINK-3154,1 49417U 21104K   23050.61004439  .00005623  00000-0  37105-3 0  9995,2 49417  53.2149 180.4177 0001117  69.5128 290.5984 15.08843052 70572,6917.871,95.437,540.509,538.963,0.0
49417.0,STARLINK-3154,PAYLOAD,2023-02-19 16:13:50,15.08854883,0.0001127,53.2161,180.1173,77.4387,282.6731,0.00050907,7.827e-05,0.0,0 STARLINK-3154,1 49417U 21104K   23050.67627750  .00007827  00000-0  50907-3 0  9991,2 49417  53.2161 180.1173 0001127  77.4387 282.6731 15.08854883 71695,6917.835,95.437,540.48,538.92,0.0
49417.0,STARLINK-3154,PAYLOAD,2023-02-20 08:07:41,15.08850054,0.0001249,53.2154,177.1451,75.0786,285.0344,0.00023273,3.419e-05,0.0,0 STARLINK-3154,1 49417U 21104K   23051.33867743  .00003419  00000-0  23273-3 0  9992,2 49417  53.2154 177.1451 0001249  75.0786 285.0344 15.08850054 71798,6917.85,95.437,540.579,538.851,0.0
49417.0,STARLINK-3154,PAYLOAD,2023-02-20 14:29:13,15.08857099,0.0001138,53.2159,175.9553,79.0148,281.0972,0.00030447,4.563e-05,0.0,0 STARLINK-3154,1 49417U 21104K   23051.60363219  .00004563  00000-0  30447-3 0  9993,2 49417  53.2159 175.9553 0001138  79.0148 281.0972 15.08857099 70726,6917.828,95.436,540.48,538.906,0.0
49417.0,STARLINK-3154,PAYLOAD,2023-02-21 14:20:01,15.08842784,8.42e-05,53.2166,171.4972,74.3832,285.7253,3.1034e-05,2.06e-06,0.0,0 STARLINK-3154,1 49417U 21104K   23052.59723497  .00000206  00000-0  31034-4 0  9994,2 49417  53.2166 171.4972 0000842  74.3832 285.7253 15.08842784 71986,6917.872,95.437,540.319,539.154,0.0
49417.0,STARLINK-3154,PAYLOAD,2023-02-21 17:30:47,15.0884633,0.0001099,53.2159,170.9003,85.7501,274.3617,2.288e-06,-2.51e-06,0.0,0 STARLINK-3154,1 49417U 21104K   23052.72971227 -.00000251  00000-0  22880-5 0  9996,2 49417  53.2159 170.9003 0001099  85.7501 274.3617 15.08846330 70899,6917.861,95.437,540.486,538.966,0.0
49417.0,STARLINK-3154,PAYLOAD,2023-02-22 03:03:08,15.08794059,0.000117,53.216,169.1162,106.0669,254.0452,-0.00076776,-0.0001247,0.0,0 STARLINK-3154,1 49417U 21104K   23053.12717903 -.00012470  00000-0 -76776-3 0  9998,2 49417  53.2160 169.1162 0001170 106.0669 254.0452 15.08794059 72062,6918.021,95.44,540.695,539.076,0.0
49417.0,STARLINK-3154,PAYLOAD,2023-02-22 12:35:27,15.08798073,0.0001093,53.2157,167.3318,94.5126,265.5991,-0.00039784,-6.606e-05,0.0,0 STARLINK-3154,1 49417U 21104K   23053.52462898 -.00006606  00000-0 -39784-3 0  9994,2 49417  53.2157 167.3318 0001093  94.5126 265.5991 15.08798073 71013,6918.009,95.44,540.63,539.117,0.0
49417.0,STARLINK-3154,PAYLOAD,2023-02-22 17:21:37,15.08799298,0.0001166,53.2155,166.4395,99.7208,260.3916,-8.9134e-05,-1.704e-05,0.0,0 STARLINK-3154,1 49417U 21104K   23053.72335393 -.00001704  00000-0 -89134-4 0  9994,2 49417  53.2155 166.4395 0001166  99.7208 260.3916 15.08799298 72151,6918.005,95.44,540.676,539.063,0.0
49417.0,STARLINK-3154,PAYLOAD,2023-02-22 18:57:01,15.08801919,0.0001154,53.2158,166.1429,104.7876,255.3244,0.00044063,6.724e-05,0.0,0 STARLINK-3154,1 49417U 21104K   23053.78959644  .00006724  00000-0  44063-3 0  9997,2 49417  53.2158 166.1429 0001154 104.7876 255.3244 15.08801919 71054,6917.997,95.44,540.66,539.063,0.0
49417.0,STARLINK-3154,PAYLOAD,2023-02-23 04:29:20,15.08841697,9.2e-05,53.2158,164.3568,90.8737,269.2361,0.00214,0.00033936,0.0,0 STARLINK-3154,1 49417U 21104K   23054.18703807  .00033936  00000-0  21400-2 0  9994,2 49417  53.2158 164.3568 0000920  90.8737 269.2361 15.08841697 72220,6917.875,95.437,540.377,539.104,0.0
49417.0,STARLINK-3154,PAYLOAD,2023-02-23 12:26:14,15.08904765,8.73e-05,53.2162,162.8728,73.7839,286.3249,0.0035812,0.00057272,0.0,0 STARLINK-3154,1 49417U 21104K   23054.51822751  .00057272  00000-0  35812-2 0  9992,2 49417  53.2162 162.8728 0000873  73.7839 286.3249 15.08904765 72272,6917.682,95.433,540.151,538.944,0.0
49417.0,STARLINK-3154,PAYLOAD,2023-02-23 23:33:55,15.08895531,0.0001049,53.2156,160.7899,79.7158,280.3952,0.0034716,0.00055482,0.0,0 STARLINK-3154,1 49417U 21104K   23054.98189717  .00055482  00000-0  34716-2 0  9994,2 49417  53.2156 160.7899 0001049  79.7158 280.3952 15.08895531 72340,6917.711,95.434,540.301,538.85,0.0
49417.0,STARLINK-3154,PAYLOAD,2023-02-24 07:30:51,15.08912694,0.0003501,53.2159,159.3041,83.9429,276.1962,0.0023522,0.00037424,0.0,0 STARLINK-3154,1 49417U 21104K   23055.31309407  .00037424  00000-0  23522-2 0  9991,2 49417  53.2159 159.3041 0003501  83.9429 276.1962 15.08912694 72398,6917.658,95.433,541.945,537.101,0.0
49417.0,STARLINK-3154,PAYLOAD,2023-02-24 12:17:00,15.08876549,7.61e-05,53.2162,158.4125,121.1798,238.9269,0.0024439,0.0003886,0.0,0 STARLINK-3154,1 49417U 21104K   23055.51180861  .00038860  00000-0  24439-2 0  9997,2 49417  53.2162 158.4125 0000761 121.1798 238.9269 15.08876549 71319,6917.769,95.435,540.16,539.107,0.0
49417.0,STARLINK-3154,PAYLOAD,2023-02-24 13:52:23,15.08880088,7.52e-05,53.2161,158.115,120.9338,239.1728,0.0023643,0.00037582,0.0,0 STARLINK-3154,1 49417U 21104K   23055.57804707  .00037582  00000-0  23643-2 0  9991,2 49417  53.2161 158.1150 0000752 120.9338 239.1728 15.08880088 72430,6917.758,95.435,540.143,539.103,0.0
